0 THOR ABLESTAR DEB
1 05716U 61015JT  13281.40525722  .00001232  00000-0  33345-3 0   578
2 05716 066.7004 265.7848 0096987 266.5894 245.4626 14.48525569687574
0 THOR ABLESTAR DEB
1 05716U 61015JT  13287.26733880  .00001467  00000-0  39228-3 0   592
2 05716 066.7009 249.9813 0096685 262.5748 214.2719 14.48547657688428
0 THOR ABLESTAR DEB
1 05716U 61015JT  13289.33059266  .00001500  00000-0  40055-3 0   601
2 05716 066.7011 244.4191 0096633 261.1201 173.6036 14.48558542688720
0 THOR ABLESTAR DEB
1 05716U 61015JT  13292.23890829  .00001671  00000-0  44334-3 0   616
2 05716 066.7012 236.5790 0096557 259.0992 219.7944 14.48567337689145
0 THOR ABLESTAR DEB
1 05716U 61015JT  13294.24198671  .00001673  00000-0  44377-3 0   625
2 05716 066.7013 231.1788 0096504 257.6759 225.4707 14.48575344689431
